$$SOE
2460154.500000000, A.D. 2023-Jul-29 00:00:00.0000, -3.966027096855881E+08, 1.168959043279958E+08, 3.488420016234689E+07,
2460161.500000000, A.D. 2023-Aug-05 00:00:00.0000, -4.011185054242895E+08, 1.084691791129338E+08, 3.565227324827198E+07,
2460168.500000000, A.D. 2023-Aug-12 00:00:00.0000, -4.053659149777336E+08, 9.996983128783837E+07, 3.639648864374389E+07,
2460175.500000000, A.D. 2023-Aug-19 00:00:00.0000, -4.093460440960598E+08, 9.140452079520842E+07, 3.711670266868237E+07,
2460182.500000000, A.D. 2023-Aug-26 00:00:00.0000, -4.130600439659936E+08, 8.277973747918199E+07, 3.781278260849176E+07,
2460189.500000000, A.D. 2023-Sep-02 00:00:00.0000, -4.165091057625346E+08, 7.410181010656506E+07, 3.848460583077380E+07,
2460196.500000000, A.D. 2023-Sep-09 00:00:00.0000, -4.196944557435312E+08, 6.537691495116864E+07, 3.913205895822939E+07,
2460203.500000000, A.D. 2023-Sep-16 00:00:00.0000, -4.226173506720882E+08, 5.661108389379065E+07, 3.975503707259346E+07,
2460210.500000000, A.D. 2023-Sep-23 00:00:00.0000, -4.252790731078489E+08, 4.781021233580096E+07, 4.035344293027136E+07,
2460217.500000000, A.D. 2023-Sep-30 00:00:00.0000, -4.276809268678820E+08, 3.898006812846421E+07, 4.092718631390274E+07,
2460224.500000000, A.D. 2023-Oct-07 00:00:00.0000, -4.298242349767098E+08, 3.012630098645394E+07, 4.147618368756266E+07,
2460231.500000000, A.D. 2023-Oct-14 00:00:00.0000, -4.317103390365829E+08, 2.125444908489723E+07, 4.200035778625482E+07,
2460238.500000000, A.D. 2023-Oct-21 00:00:00.0000, -4.333405967611299E+08, 1.236994445697589E+07, 4.249963697163517E+07,
2460245.500000000, A.D. 2023-Oct-28 00:00:00.0000, -4.347163790681764E+08, 3.478119464830315E+06, 4.297395466629755E+07,
2460252.500000000, A.D. 2023-Nov-04 00:00:00.0000, -4.358390679580584E+08, -5.415786416010650E+06, 4.342324891558707E+07,
2460259.500000000, A.D. 2023-Nov-11 00:00:00.0000, -4.367100549808601E+08, -1.430662008703213E+07, 4.384746200946753E+07,
2460266.500000000, A.D. 2023-Nov-18 00:00:00.0000, -4.373307400556031E+08, -2.318930864384677E+07, 4.424654013717256E+07,
2460273.500000000, A.D. 2023-Nov-25 00:00:00.0000, -4.377025305521511E+08, -3.205885348540061E+07, 4.462043306801753E+07,
2460280.500000000, A.D. 2023-Dec-02 00:00:00.0000, -4.378268405929857E+08, -4.091032471503028E+07, 4.496909385320067E+07,
2460287.500000000, A.D. 2023-Dec-09 00:00:00.0000, -4.377050904843452E+08, -4.973885588115150E+07, 4.529247853511147E+07,
2460294.500000000, A.D. 2023-Dec-16 00:00:00.0000, -4.373387059781659E+08, -5.853963903385556E+07, 4.559054583738962E+07,
2460301.500000000, A.D. 2023-Dec-23 00:00:00.0000, -4.367291170063531E+08, -6.730791939856690E+07, 4.586325685856098E+07,
2460308.500000000, A.D. 2023-Dec-30 00:00:00.0000, -4.358777572178856E+08, -7.603898860620797E+07, 4.611057497642180E+07,
2460315.500000000, A.D. 2024-Jan-06 00:00:00.0000, -4.347860660826165E+08, -8.472817883022836E+07, 4.633246593126816E+07,
2460322.500000000, A.D. 2024-Jan-13 00:00:00.0000, -4.334554903821715E+08, -9.337085962743343E+07, 4.652889764792541E+07,
2460329.500000000, A.D. 2024-Jan-20 00:00:00.0000, -4.318874838569239E+08, -1.019624343882186E+08, 4.669983993505802E+07,
2460336.500000000, A.D. 2024-Jan-27 00:00:00.0000, -4.300835070307551E+08, -1.104983357365004E+08, 4.684526429974996E+07,
2460343.500000000, A.D. 2024-Feb-03 00:00:00.0000, -4.280450276392973E+08, -1.189740208223351E+08, 4.696514383823794E+07,
2460350.500000000, A.D. 2024-Feb-10 00:00:00.0000, -4.257735213854730E+08, -1.273849667916784E+08, 4.705945315329140E+07,
2460357.500000000, A.D. 2024-Feb-17 00:00:00.0000, -4.232704728853952E+08, -1.357266664168395E+08, 4.712816828607354E+07,
2460364.500000000, A.D. 2024-Feb-24 00:00:00.0000, -4.205373767695456E+08, -1.439946238637679E+08, 4.717126666017944E+07,
2460371.500000000, A.D. 2024-Mar-02 00:00:00.0000, -4.175757389103245E+08, -1.521843506201832E+08, 4.718872703220345E+07,
2460378.500000000, A.D. 2024-Mar-09 00:00:00.0000, -4.143870776380559E+08, -1.602913616396540E+08, 4.718052943070879E+07,
2460385.500000000, A.D. 2024-Mar-16 00:00:00.0000, -4.109729245518539E+08, -1.683111714971085E+08, 4.714665506331860E+07,
2460392.500000000, A.D. 2024-Mar-23 00:00:00.0000, -4.073348250312889E+08, -1.762392894396823E+08, 4.708708629198070E+07,
2460399.500000000, A.D. 2024-Mar-30 00:00:00.0000, -4.034743406929652E+08, -1.840712133532149E+08, 4.700180687971109E+07,
2460406.500000000, A.D. 2024-Apr-06 00:00:00.0000, -3.993930535409580E+08, -1.918024260066178E+08, 4.689080221027218E+07,
2460413.500000000, A.D. 2024-Apr-13 00:00:00.0000, -3.950925682670012E+08, -1.994283927318193E+08, 4.675405922390375E+07,
2460420.500000000, A.D. 2024-Apr-20 00:00:00.0000, -3.905745136586520E+08, -2.069445578554004E+08, 4.659156637552914E+07,
2460427.500000000, A.D. 2024-Apr-27 00:00:00.0000, -3.858405446374080E+08, -2.143463404369131E+08, 4.640331370878286E+07,
2460434.500000000, A.D. 2024-May-04 00:00:00.0000, -3.808923448452251E+08, -2.216291300130913E+08, 4.618929298058462E+07,
2460441.500000000, A.D. 2024-May-11 00:00:00.0000, -3.757316295501951E+08, -2.287882824468300E+08, 4.594949780689516E+07,
2460448.500000000, A.D. 2024-May-18 00:00:00.0000, -3.703601488007003E+08, -2.358191158563996E+08, 4.568392382519663E+07,
2460455.500000000, A.D. 2024-May-25 00:00:00.0000, -3.647796908159906E+08, -2.427169066288769E+08, 4.539256887239268E+07,
2460462.500000000, A.D. 2024-Jun-01 00:00:00.0000, -3.589920855670926E+08, -2.494768855721186E+08, 4.507543316961055E+07,
2460469.500000000, A.D. 2024-Jun-08 00:00:00.0000, -3.529992083165521E+08, -2.560942342253463E+08, 4.473251949118325E+07,
2460476.500000000, A.D. 2024-Jun-15 00:00:00.0000, -3.468029827333583E+08, -2.625640807805943E+08, 4.436383332752098E+07,
2460483.500000000, A.D. 2024-Jun-22 00:00:00.0000, -3.404053846047490E+08, -2.688814944375471E+08, 4.396938323190147E+07,
2460490.500000000, A.D. 2024-Jun-29 00:00:00.0000, -3.338084482838241E+08, -2.750414800115860E+08, 4.354918139878347E+07,
2460497.500000000, A.D. 2024-Jul-06 00:00:00.0000, -3.270142732480133E+08, -2.810389752675041E+08, 4.310324403128087E+07,
2460504.500000000, A.D. 2024-Jul-13 00:00:00.0000, -3.200250288420101E+08, -2.868688481566671E+08, 4.263159155241229E+07,
2460511.500000000, A.D. 2024-Jul-20 00:00:00.0000, -3.128429592144052E+08, -2.925258928102967E+08, 4.213424893870333E+07,
2460518.500000000, A.D. 2024-Jul-27 00:00:00.0000, -3.054703891281055E+08, -2.980048252508425E+08, 4.161124616032638E+07,
2460525.500000000, A.D. 2024-Aug-03 00:00:00.0000, -2.979097303975655E+08, -3.033002792014735E+08, 4.106261867466305E+07,
2460532.500000000, A.D. 2024-Aug-10 00:00:00.0000, -2.901634888161220E+08, -3.084068020058908E+08, 4.048840796071805E+07,
2460539.500000000, A.D. 2024-Aug-17 00:00:00.0000, -2.822342715585837E+08, -3.133188506463467E+08, 3.988866209532586E+07,
2460546.500000000, A.D. 2024-Aug-24 00:00:00.0000, -2.741247950666817E+08, -3.180307878931129E+08, 3.926343637064368E+07,
2460553.500000000, A.D. 2024-Aug-31 00:00:00.0000, -2.658378933398488E+08, -3.225368786593642E+08, 3.861279394142844E+07,
2460560.500000000, A.D. 2024-Sep-07 00:00:00.0000, -2.573765263063781E+08, -3.268312864490668E+08, 3.793680648321865E+07,
2460567.500000000, A.D. 2024-Sep-14 00:00:00.0000, -2.487437882320051E+08, -3.309080689174874E+08, 3.723555493938829E+07,
2460574.500000000, A.D. 2024-Sep-21 00:00:00.0000, -2.399429182375627E+08, -3.347611721498803E+08, 3.650913058124949E+07,
2460581.500000000, A.D. 2024-Sep-28 00:00:00.0000, -2.309773134572370E+08, -3.383844269105185E+08, 3.575763616687816E+07,
2460588.500000000, A.D. 2024-Oct-05 00:00:00.0000, -2.218505412168049E+08, -3.417715468941574E+08, 3.498118686818652E+07,
2460595.500000000, A.D. 2024-Oct-12 00:00:00.0000, -2.125663506484676E+08, -3.449161260403114E+08, 3.417991125021949E+07,
2460602.500000000, A.D. 2024-Oct-19 00:00:00.0000, -2.031286855545143E+08, -3.478116352257445E+08, 3.335395244925742E+07,
2460609.500000000, A.D. 2024-Oct-26 00:00:00.0000, -1.935416986169981E+08, -3.504514191855410E+08, 3.250346949564317E+07,
2460616.500000000, A.D. 2024-Nov-02 00:00:00.0000, -1.838097667631008E+08, -3.528286938664989E+08, 3.162863875429036E+07,
2460623.500000000, A.D. 2024-Nov-09 00:00:00.0000, -1.739375076589934E+08, -3.549365442566264E+08, 3.072965548493597E+07,
2460630.500000000, A.D. 2024-Nov-16 00:00:00.0000, -1.639297973791646E+08, -3.567679227657611E+08, 2.980673552990873E+07,
2460637.500000000, A.D. 2024-Nov-23 00:00:00.0000, -1.537917892808573E+08, -3.583156482939730E+08, 2.886011713206193E+07,
2460644.500000000, A.D. 2024-Nov-30 00:00:00.0000, -1.435289339549587E+08, -3.595724061297768E+08, 2.789006287210025E+07,
2460651.500000000, A.D. 2024-Dec-07 00:00:00.0000, -1.331469999160688E+08, -3.605307483713542E+08, 2.689686173380412E+07,
2460658.500000000, A.D. 2024-Dec-14 00:00:00.0000, -1.226520958044322E+08, -3.611830937765725E+08, 2.588083147369950E+07,
2460665.500000000, A.D. 2024-Dec-21 00:00:00.0000, -1.120506965026494E+08, -3.615217284299055E+08, 2.484232142040431E+07,
2460672.500000000, A.D. 2024-Dec-28 00:00:00.0000, -1.013496712781876E+08, -3.615388103630102E+08, 2.378171529499227E+07,
2460679.500000000, A.D. 2025-Jan-04 00:00:00.0000, -9.055631143755735E+07, -3.612263759480762E+08, 2.269943402431108E+07,
2460686.500000000, A.D. 2025-Jan-11 00:00:00.0000, -7.967835939420764E+07, -3.605763466251497E+08, 2.159593886677407E+07,
2460693.500000000, A.D. 2025-Jan-18 00:00:00.0000, -6.872404014187118E+07, -3.595805371310172E+08, 2.047173487686710E+07,
2460700.500000000, A.D. 2025-Jan-25 00:00:00.0000, -5.770209495559034E+07, -3.582306659845804E+08, 1.932737466467732E+07,
2460707.500000000, A.D. 2025-Feb-01 00:00:00.0000, -4.662181718349874E+07, -3.565183685743040E+08, 1.816346244790255E+07,
2460714.500000000, A.D. 2025-Feb-08 00:00:00.0000, -3.549309010515228E+07, -3.544352131830699E+08, 1.698065840949364E+07,
$$EOE